[{"CCSDS_OMM_VERS":"2.0","COMMENT":"GENERATED VIA SPACE-TRACK.ORG API","CREATION_DATE":"2021-05-08T06:36:12","ORIGINATOR":"18 SPCS","OBJECT_NAME":"ONEWEB-0220","OBJECT_ID":"2021-031Y","CENTER_NAME":"EARTH","REF_FRAME":"TEME","TIME_SYSTEM":"UTC","MEAN_ELEMENT_THEORY":"SGP4","EPOCH":"2021-05-08T04:00:01.999584","MEAN_MOTION":"15.42307156","ECCENTRICITY":"0.00096660","INCLINATION":"87.3978","RA_OF_ASC_NODE":"308.8066","ARG_OF_PERICENTER":"203.3148","MEAN_ANOMALY":"68.3803","EPHEMERIS_TYPE":"0","CLASSIFICATION_TYPE":"U","NORAD_CAT_ID":"48232","ELEMENT_SET_NO":"999","REV_AT_EPOCH":"187","BSTAR":"-0.00126390000000","MEAN_MOTION_DOT":"-0.00053946","MEAN_MOTION_DDOT":"0.0000000000000","SEMIMAJOR_AXIS":"6817.439","PERIOD":"93.367","APOAPSIS":"445.894","PERIAPSIS":"432.714","OBJECT_TYPE":"PAYLOAD","RCS_SIZE":"MEDIUM","COUNTRY_CODE":"UK","LAUNCH_DATE":"2021-04-25","SITE":"VOSTO","DECAY_DATE":null,"FILE":"3032626","GP_ID":"176858060","TLE_LINE0":"0 ONEWEB-0220","TLE_LINE1":"1 48232U 21031Y   21128.16668981 -.00053946  00000-0 -12639-2 0  9997","TLE_LINE2":"2 48232  87.3978 308.8066 0009666 203.3148  68.3803 15.42307156  1870"},{"CCSDS_OMM_VERS":"2.0","COMMENT":"GENERATED VIA SPACE-TRACK.ORG API","CREATION_DATE":"2021-05-08T14:36:13","ORIGINATOR":"18 SPCS","OBJECT_NAME":"ONEWEB-0220","OBJECT_ID":"2021-031Y","CENTER_NAME":"EARTH","REF_FRAME":"TEME","TIME_SYSTEM":"UTC","MEAN_ELEMENT_THEORY":"SGP4","EPOCH":"2021-05-08T08:00:01.000224","MEAN_MOTION":"15.42246989","ECCENTRICITY":"0.00097890","INCLINATION":"87.3979","RA_OF_ASC_NODE":"308.7472","ARG_OF_PERICENTER":"202.7526","MEAN_ANOMALY":"273.6161","EPHEMERIS_TYPE":"0","CLASSIFICATION_TYPE":"U","NORAD_CAT_ID":"48232","ELEMENT_SET_NO":"999","REV_AT_EPOCH":"190","BSTAR":"0.00156100000000","MEAN_MOTION_DOT":"0.00067639","MEAN_MOTION_DDOT":"0.0000000000000","SEMIMAJOR_AXIS":"6817.616","PERIOD":"93.370","APOAPSIS":"446.155","PERIAPSIS":"432.808","OBJECT_TYPE":"PAYLOAD","RCS_SIZE":"MEDIUM","COUNTRY_CODE":"UK","LAUNCH_DATE":"2021-04-25","SITE":"VOSTO","DECAY_DATE":null,"FILE":"3032807","GP_ID":"176861357","TLE_LINE0":"0 ONEWEB-0220","TLE_LINE1":"1 48232U 21031Y   21128.33334491  .00067639  00000-0  15610-2 0  9996","TLE_LINE2":"2 48232  87.3979 308.7472 0009789 202.7526 273.6161 15.42246989  1908"},{"CCSDS_OMM_VERS":"2.0","COMMENT":"GENERATED VIA SPACE-TRACK.ORG API","CREATION_DATE":"2021-05-08T22:56:11","ORIGINATOR":"18 SPCS","OBJECT_NAME":"ONEWEB-0220","OBJECT_ID":"2021-031Y","CENTER_NAME":"EARTH","REF_FRAME":"TEME","TIME_SYSTEM":"UTC","MEAN_ELEMENT_THEORY":"SGP4","EPOCH":"2021-05-08T20:00:13.999968","MEAN_MOTION":"15.42255951","ECCENTRICITY":"0.00097940","INCLINATION":"87.3979","RA_OF_ASC_NODE":"308.5668","ARG_OF_PERICENTER":"200.7841","MEAN_ANOMALY":"170.5734","EPHEMERIS_TYPE":"0","CLASSIFICATION_TYPE":"U","NORAD_CAT_ID":"48232","ELEMENT_SET_NO":"999","REV_AT_EPOCH":"198","BSTAR":"0.00123220000000","MEAN_MOTION_DOT":"0.00053321","MEAN_MOTION_DDOT":"0.0000000000000","SEMIMAJOR_AXIS":"6817.590","PERIOD":"93.370","APOAPSIS":"446.132","PERIAPSIS":"432.778","OBJECT_TYPE":"PAYLOAD","RCS_SIZE":"MEDIUM","COUNTRY_CODE":"UK","LAUNCH_DATE":"2021-04-25","SITE":"VOSTO","DECAY_DATE":null,"FILE":"3033052","GP_ID":"176877318","TLE_LINE0":"0 ONEWEB-0220","TLE_LINE1":"1 48232U 21031Y   21128.83349537  .00053321  00000-0  12322-2 0  9998","TLE_LINE2":"2 48232  87.3979 308.5668 0009794 200.7841 170.5734 15.42255951  1985"},{"CCSDS_OMM_VERS":"2.0","COMMENT":"GENERATED VIA SPACE-TRACK.ORG API","CREATION_DATE":"2021-05-09T04:53:24","ORIGINATOR":"18 SPCS","OBJECT_NAME":"ONEWEB-0220","OBJECT_ID":"2021-031Y","CENTER_NAME":"EARTH","REF_FRAME":"TEME","TIME_SYSTEM":"UTC","MEAN_ELEMENT_THEORY":"SGP4","EPOCH":"2021-05-08T22:00:00.999936","MEAN_MOTION":"15.42256686","ECCENTRICITY":"0.00097880","INCLINATION":"87.3979","RA_OF_ASC_NODE":"308.5369","ARG_OF_PERICENTER":"200.5471","MEAN_ANOMALY":"272.3319","EPHEMERIS_TYPE":"0","CLASSIFICATION_TYPE":"U","NORAD_CAT_ID":"48232","ELEMENT_SET_NO":"999","REV_AT_EPOCH":"181","BSTAR":"0.00154410000000","MEAN_MOTION_DOT":"0.00066922","MEAN_MOTION_DDOT":"0.0000000000000","SEMIMAJOR_AXIS":"6817.588","PERIOD":"93.370","APOAPSIS":"446.126","PERIAPSIS":"432.780","OBJECT_TYPE":"PAYLOAD","RCS_SIZE":"MEDIUM","COUNTRY_CODE":"UK","LAUNCH_DATE":"2021-04-25","SITE":"VOSTO","DECAY_DATE":null,"FILE":"3033195","GP_ID":"176902829","TLE_LINE0":"0 ONEWEB-0220","TLE_LINE1":"1 48232U 21031Y   21128.91667824  .00066922  00000-0  15441-2 0  9995","TLE_LINE2":"2 48232  87.3979 308.5369 0009788 200.5471 272.3319 15.42256686  1811"},{"CCSDS_OMM_VERS":"2.0","COMMENT":"GENERATED VIA SPACE-TRACK.ORG API","CREATION_DATE":"2021-05-09T12:09:34","ORIGINATOR":"18 SPCS","OBJECT_NAME":"ONEWEB-0220","OBJECT_ID":"2021-031Y","CENTER_NAME":"EARTH","REF_FRAME":"TEME","TIME_SYSTEM":"UTC","MEAN_ELEMENT_THEORY":"SGP4","EPOCH":"2021-05-09T06:00:02.000160","MEAN_MOTION":"15.42285298","ECCENTRICITY":"0.00098600","INCLINATION":"87.3978","RA_OF_ASC_NODE":"308.4192","ARG_OF_PERICENTER":"199.0073","MEAN_ANOMALY":"323.3748","EPHEMERIS_TYPE":"0","CLASSIFICATION_TYPE":"U","NORAD_CAT_ID":"48232","ELEMENT_SET_NO":"999","REV_AT_EPOCH":"177","BSTAR":"0.00009553900000","MEAN_MOTION_DOT":"0.00004157","MEAN_MOTION_DDOT":"0.0000000000000","SEMIMAJOR_AXIS":"6817.503","PERIOD":"93.368","APOAPSIS":"446.090","PERIAPSIS":"432.646","OBJECT_TYPE":"PAYLOAD","RCS_SIZE":"MEDIUM","COUNTRY_CODE":"UK","LAUNCH_DATE":"2021-04-25","SITE":"VOSTO","DECAY_DATE":null,"FILE":"3033429","GP_ID":"176931095","TLE_LINE0":"0 ONEWEB-0220","TLE_LINE1":"1 48232U 21031Y   21129.25002315  .00004157  00000-0  95539-4 0  9991","TLE_LINE2":"2 48232  87.3978 308.4192 0009860 199.0073 323.3748 15.42285298  1773"},{"CCSDS_OMM_VERS":"2.0","COMMENT":"GENERATED VIA SPACE-TRACK.ORG API","CREATION_DATE":"2021-05-09T14:36:11","ORIGINATOR":"18 SPCS","OBJECT_NAME":"ONEWEB-0220","OBJECT_ID":"2021-031Y","CENTER_NAME":"EARTH","REF_FRAME":"TEME","TIME_SYSTEM":"UTC","MEAN_ELEMENT_THEORY":"SGP4","EPOCH":"2021-05-09T12:00:00.999648","MEAN_MOTION":"15.42300699","ECCENTRICITY":"0.00099320","INCLINATION":"87.3977","RA_OF_ASC_NODE":"308.3297","ARG_OF_PERICENTER":"198.1595","MEAN_ANOMALY":"271.2335","EPHEMERIS_TYPE":"0","CLASSIFICATION_TYPE":"U","NORAD_CAT_ID":"48232","ELEMENT_SET_NO":"999","REV_AT_EPOCH":"208","BSTAR":"0.00021775000000","MEAN_MOTION_DOT":"0.00009424","MEAN_MOTION_DDOT":"0.0000000000000","SEMIMAJOR_AXIS":"6817.458","PERIOD":"93.367","APOAPSIS":"446.094","PERIAPSIS":"432.552","OBJECT_TYPE":"PAYLOAD","RCS_SIZE":"MEDIUM","COUNTRY_CODE":"UK","LAUNCH_DATE":"2021-04-25","SITE":"VOSTO","DECAY_DATE":null,"FILE":"3033502","GP_ID":"176932344","TLE_LINE0":"0 ONEWEB-0220","TLE_LINE1":"1 48232U 21031Y   21129.50001157  .00009424  00000-0  21775-3 0  9994","TLE_LINE2":"2 48232  87.3977 308.3297 0009932 198.1595 271.2335 15.42300699  2087"},{"CCSDS_OMM_VERS":"2.0","COMMENT":"GENERATED VIA SPACE-TRACK.ORG API","CREATION_DATE":"2021-05-09T17:32:21","ORIGINATOR":"18 SPCS","OBJECT_NAME":"ONEWEB-0220","OBJECT_ID":"2021-031Y","CENTER_NAME":"EARTH","REF_FRAME":"TEME","TIME_SYSTEM":"UTC","MEAN_ELEMENT_THEORY":"SGP4","EPOCH":"2021-05-09T14:00:01.000224","MEAN_MOTION":"15.42319542","ECCENTRICITY":"0.00099640","INCLINATION":"87.3977","RA_OF_ASC_NODE":"308.2994","ARG_OF_PERICENTER":"198.0290","MEAN_ANOMALY":"13.7121","EPHEMERIS_TYPE":"0","CLASSIFICATION_TYPE":"U","NORAD_CAT_ID":"48232","ELEMENT_SET_NO":"999","REV_AT_EPOCH":"176","BSTAR":"-0.00121570000000","MEAN_MOTION_DOT":"-0.00051927","MEAN_MOTION_DDOT":"0.0000000000000","SEMIMAJOR_AXIS":"6817.402","PERIOD":"93.366","APOAPSIS":"446.060","PERIAPSIS":"432.475","OBJECT_TYPE":"PAYLOAD","RCS_SIZE":"LARGE","COUNTRY_CODE":"UK","LAUNCH_DATE":"2021-04-25","SITE":"VOSTO","DECAY_DATE":null,"FILE":"3033642","GP_ID":"176958886","TLE_LINE0":"0 ONEWEB-0220","TLE_LINE1":"1 48232U 21031Y   21129.58334491 -.00051927  00000-0 -12157-2 0  9992","TLE_LINE2":"2 48232  87.3977 308.2994 0009964 198.0290  13.7121 15.42319542  1769"},{"CCSDS_OMM_VERS":"2.0","COMMENT":"GENERATED VIA SPACE-TRACK.ORG API","CREATION_DATE":"2021-05-09T22:26:11","ORIGINATOR":"18 SPCS","OBJECT_NAME":"ONEWEB-0220","OBJECT_ID":"2021-031Y","CENTER_NAME":"EARTH","REF_FRAME":"TEME","TIME_SYSTEM":"UTC","MEAN_ELEMENT_THEORY":"SGP4","EPOCH":"2021-05-09T20:00:01.000224","MEAN_MOTION":"15.42259473","ECCENTRICITY":"0.00099350","INCLINATION":"87.3977","RA_OF_ASC_NODE":"308.2092","ARG_OF_PERICENTER":"197.0476","MEAN_ANOMALY":"321.8010","EPHEMERIS_TYPE":"0","CLASSIFICATION_TYPE":"U","NORAD_CAT_ID":"48232","ELEMENT_SET_NO":"999","REV_AT_EPOCH":"213","BSTAR":"0.00128670000000","MEAN_MOTION_DOT":"0.00055703","MEAN_MOTION_DDOT":"0.0000000000000","SEMIMAJOR_AXIS":"6817.579","PERIOD":"93.370","APOAPSIS":"446.218","PERIAPSIS":"432.671","OBJECT_TYPE":"PAYLOAD","RCS_SIZE":"LARGE","COUNTRY_CODE":"UK","LAUNCH_DATE":"2021-04-25","SITE":"VOSTO","DECAY_DATE":null,"FILE":"3033711","GP_ID":"176960444","TLE_LINE0":"0 ONEWEB-0220","TLE_LINE1":"1 48232U 21031Y   21129.83334491  .00055703  00000-0  12867-2 0  9992","TLE_LINE2":"2 48232  87.3977 308.2092 0009935 197.0476 321.8010 15.42259473  2139"}]